     2.10           NAVIGATION DATA                         RINEX VERSION / TYPE
GN-RINEX 1.3                            11-FEB-18 00:00     PGM / RUN BY / DATE
RXN2RXN 1.0u                            2018-02-28 07:28    COMMENT
                                                            END OF HEADER
21 18  2 11  4  0  0.0-0.431761611253D-03 0.432009983342D-11 0.000000000000D+00
    0.210000000000D+02-0.729375000000D+02 0.493484841339D-08-0.566626845803D+00
   -0.379048287868D-05 0.244149881182D-01 0.913999974728D-05 0.515377066231D+04
    0.144000000000D+05-0.305473804474D-06-0.918225759011D+00 0.126659870148D-06
    0.942693393044D+00 0.196750000000D+03-0.159633286094D+01-0.870929134837D-08
    0.589310261424D-10 0.100000000000D+01 0.198800000000D+04 0.000000000000D+00
    0.000000000000D+00 0.000000000000D+00-0.102445483208D-07 0.210000000000D+02
    0.721800000000D+04 0.000000000000D+00 0.000000000000D+00 0.000000000000D+00
16 18  2 11  4  0  0.0 0.324789434671D-04-0.795807864051D-12 0.000000000000D+00
    0.100000000000D+03 0.856875000000D+02 0.399873799206D-08-0.200863018070D+01
    0.412762165070D-05 0.985429342836D-02 0.560656189919D-05 0.515358370018D+04
    0.144000000000D+05 0.745058059692D-07-0.288630565433D+01-0.149011611938D-06
    0.988216145752D+00 0.285125000000D+03 0.465564630578D+00-0.785639867911D-08
    0.347871633107D-09 0.100000000000D+01 0.198800000000D+04 0.000000000000D+00
    0.100000000000D+01 0.000000000000D+00-0.107102096081D-07 0.100000000000D+03
    0.721800000000D+04 0.000000000000D+00 0.000000000000D+00 0.000000000000D+00
31 18  2  4  0  0  0.0 0.142598990351D-03-0.261479726760D-11 0.000000000000D+00
    0.880000000000D+02 0.319687500000D+02 0.441518391013D-08-0.181969304680D+01
    0.143051147461D-05 0.884163950104D-02 0.101625919342D-04 0.515361016273D+04
    0.000000000000D+00-0.614672899246D-07 0.230046908201D+01-0.162050127983D-06
    0.964215856992D+00 0.187937500000D+03-0.156460883578D+00-0.789711466081D-08
   -0.160720980388D-09 0.100000000000D+01 0.198700000000D+04 0.000000000000D+00
    0.100000000000D+01 0.000000000000D+00-0.135041773319D-07 0.880000000000D+02
   -0.718200000000D+04 0.000000000000D+00 0.000000000000D+00 0.000000000000D+00
31 18  2 11  4  0  0.0 0.142559409142D-03-0.261479726760D-11 0.000000000000D+00
    0.500000000000D+01 0.405625000000D+02 0.428767859902D-08 0.280683949076D+00
    0.219978392124D-05 0.884114461951D-02 0.976584851742D-05 0.515360915375D+04
    0.144000000000D+05 0.135973095894D-06 0.230035510167D+01-0.782310962677D-07
    0.964213244220D+00 0.190625000000D+03-0.156400312918D+00-0.795211695188D-08
   -0.210723063176D-09 0.100000000000D+01 0.198800000000D+04 0.000000000000D+00
    0.000000000000D+00 0.000000000000D+00-0.135041773319D-07 0.500000000000D+01
    0.751500000000D+04 0.000000000000D+00 0.000000000000D+00 0.000000000000D+00
11 18  2 11  4  0  0.0-0.736028887331D-03-0.682121026330D-12 0.000000000000D+00
    0.590000000000D+02-0.933437500000D+02 0.604418033580D-08 0.458273044569D+00
   -0.489689409733D-05 0.167373549193D-01 0.581331551075D-05 0.515376006508D+04
    0.144000000000D+05-0.178813934326D-06-0.128697119270D+01-0.139698386192D-06
    0.903901542510D+00 0.242781250000D+03 0.173956585784D+01-0.913930926034D-08
   -0.191793703263D-09 0.100000000000D+01 0.198800000000D+04 0.000000000000D+00
    0.000000000000D+00 0.000000000000D+00-0.121071934700D-07 0.590000000000D+02
    0.721800000000D+04 0.000000000000D+00 0.000000000000D+00 0.000000000000D+00
 1 18  2 11  3 59 44.0-0.281799584627D-04-0.204636307899D-11 0.000000000000D+00
    0.130000000000D+02-0.870000000000D+02 0.425374861428D-08 0.116828557789D+01
   -0.434741377831D-05 0.732004619204D-02 0.861287117004D-05 0.515367943192D+04
    0.143840000000D+05-0.149011611938D-07-0.866936803512D+00 0.119209289551D-06
    0.970198087433D+00 0.219281250000D+03 0.613768842553D+00-0.796426031484D-08
   -0.130005415247D-09 0.100000000000D+01 0.198800000000D+04 0.000000000000D+00
    0.000000000000D+00 0.000000000000D+00 0.558793544769D-08 0.130000000000D+02
    0.723700000000D+04 0.000000000000D+00 0.000000000000D+00 0.000000000000D+00
 3 18  2 11  4  0  0.0 0.696536153555D-05 0.761701812735D-11 0.000000000000D+00
    0.150000000000D+02-0.171875000000D+01 0.455054669139D-08 0.235853444814D+00
   -0.109896063805D-06 0.118254427798D-02 0.866316258907D-05 0.515355986786D+04
    0.144000000000D+05 0.353902578354D-07 0.175494290430D+00 0.204890966415D-07
    0.961031356436D+00 0.211343750000D+03 0.501131497224D+00-0.794854537453D-08
    0.327513642258D-09 0.100000000000D+01 0.198800000000D+04 0.000000000000D+00
    0.000000000000D+00 0.000000000000D+00 0.232830643654D-08 0.150000000000D+02
    0.759000000000D+04 0.000000000000D+00 0.000000000000D+00 0.000000000000D+00
23 18  2 11  4  0  0.0-0.218976754695D-03 0.113686837722D-12 0.000000000000D+00
    0.670000000000D+02-0.431250000000D+01 0.518771608920D-08 0.200621143583D+01
   -0.366941094398D-06 0.119684227975D-01 0.627338886261D-05 0.515359140015D+04
    0.144000000000D+05-0.258907675743D-06 0.120924914201D+01-0.143423676491D-06
    0.943409173990D+00 0.252593750000D+03-0.239762460961D+01-0.831391773662D-08
   -0.143934566881D-09 0.100000000000D+01 0.198800000000D+04 0.000000000000D+00
    0.000000000000D+00 0.000000000000D+00-0.200234353542D-07 0.670000000000D+02
    0.118400000000D+05 0.000000000000D+00 0.000000000000D+00 0.000000000000D+00
11 18  2 11  6  0  0.0-0.736033543944D-03-0.682121026330D-12 0.000000000000D+00
    0.670000000000D+02-0.106906250000D+03 0.584310053145D-08 0.150833580177D+01
   -0.583752989769D-05 0.167387104593D-01 0.533089041710D-05 0.515376348877D+04
    0.216000000000D+05 0.154599547386D-06-0.128703661879D+01-0.419095158577D-06
    0.903902032588D+00 0.246656250000D+03 0.173964043448D+01-0.874357849085D-08
   -0.110361739867D-09 0.100000000000D+01 0.198800000000D+04 0.000000000000D+00
    0.000000000000D+00 0.000000000000D+00-0.121071934700D-07 0.670000000000D+02
    0.144180000000D+05 0.000000000000D+00 0.000000000000D+00 0.000000000000D+00
14 18  2 11  6  0  0.0-0.937804579735D-04-0.568434188608D-12 0.000000000000D+00
    0.920000000000D+02-0.268750000000D+01 0.462483550011D-08-0.221682761712D+01
   -0.156462192535D-06 0.932974461466D-02 0.644102692604D-05 0.515372825432D+04
    0.216000000000D+05 0.132247805595D-06 0.129879591273D+01-0.856816768646D-07
    0.960899851804D+00 0.256000000000D+03-0.195664807267D+01-0.783496921506D-08
   -0.190365072327D-09 0.100000000000D+01 0.198800000000D+04 0.000000000000D+00
    0.000000000000D+00 0.000000000000D+00-0.977888703346D-08 0.920000000000D+02
    0.144180000000D+05 0.000000000000D+00 0.000000000000D+00 0.000000000000D+00
 1 18  2 11  6  0  0.0-0.281943939626D-04-0.204636307899D-11 0.000000000000D+00
    0.200000000000D+02-0.945312500000D+02 0.416338770752D-08 0.222063210528D+01
   -0.488385558128D-05 0.732040358707D-02 0.902265310287D-05 0.515368154526D+04
    0.216000000000D+05-0.180676579475D-06-0.866994657533D+00-0.596046447754D-07
    0.970198219096D+00 0.211125000000D+03 0.613930442336D+00-0.779746765297D-08
    0.821462788651D-11 0.100000000000D+01 0.198800000000D+04 0.000000000000D+00
    0.000000000000D+00 0.000000000000D+00 0.558793544769D-08 0.200000000000D+02
    0.144180000000D+05 0.000000000000D+00 0.000000000000D+00 0.000000000000D+00
22 18  2 11  6  0  0.0-0.287624541670D-03-0.129602995003D-10 0.000000000000D+00
    0.220000000000D+02 0.187500000000D+00 0.529236330532D-08-0.253933966516D+01
   -0.428408384323D-07 0.727560510859D-02 0.825524330139D-05 0.515359315109D+04
    0.216000000000D+05 0.968575477600D-07 0.119810543230D+00 0.484287738800D-07
    0.925036083009D+00 0.196906250000D+03-0.161557954369D+01-0.818069790176D-08
    0.386444668400D-09 0.100000000000D+01 0.198800000000D+04 0.000000000000D+00
    0.000000000000D+00 0.000000000000D+00-0.176951289177D-07 0.220000000000D+02
    0.144180000000D+05 0.000000000000D+00 0.000000000000D+00 0.000000000000D+00
 8 18  2 11  6  0  0.0-0.907843932509D-04-0.136424205266D-11 0.000000000000D+00
    0.670000000000D+02-0.384375000000D+02 0.465912264259D-08-0.148029347182D+01
   -0.210665166378D-05 0.331415166147D-02 0.295415520668D-05 0.515375879478D+04
    0.216000000000D+05-0.428408384323D-07-0.193177162764D+01-0.298023223877D-07
    0.968397855555D+00 0.329312500000D+03-0.557325731151D+00-0.835749098019D-08
   -0.217866217860D-10 0.100000000000D+01 0.198800000000D+04 0.000000000000D+00
    0.000000000000D+00 0.000000000000D+00 0.558793544769D-08 0.670000000000D+02
    0.144180000000D+05 0.000000000000D+00 0.000000000000D+00 0.000000000000D+00
31 18  2 11  6  0  0.0 0.142540782690D-03-0.261479726760D-11 0.000000000000D+00
    0.600000000000D+01 0.400312500000D+02 0.418053127877D-08 0.133091688754D+01
    0.222772359848D-05 0.884140515700D-02 0.959262251854D-05 0.515360932159D+04
    0.216000000000D+05 0.223517417908D-07 0.230029950786D+01 0.154599547386D-06
    0.964212029998D+00 0.194718750000D+03-0.156415922254D+00-0.774817988565D-08
   -0.342514267094D-09 0.100000000000D+01 0.198800000000D+04 0.000000000000D+00
    0.000000000000D+00 0.000000000000D+00-0.135041773319D-07 0.600000000000D+01
    0.144180000000D+05 0.000000000000D+00 0.000000000000D+00 0.000000000000D+00
32 18  2 11  6  0  0.0-0.532460864633D-03 0.795807864051D-12 0.000000000000D+00
    0.130000000000D+02-0.325000000000D+01 0.482234372712D-08-0.107378781109D+01
   -0.238418579102D-06 0.166713958606D-02 0.643730163574D-05 0.515362523460D+04
    0.216000000000D+05 0.109896063805D-06 0.121429248041D+01-0.372529029846D-07
    0.956981888011D+00 0.256562500000D+03-0.269327975656D+01-0.809069415274D-08
   -0.228223792151D-09 0.100000000000D+01 0.198800000000D+04 0.000000000000D+00
    0.000000000000D+00 0.000000000000D+00 0.465661287308D-09 0.130000000000D+02
    0.144180000000D+05 0.000000000000D+00 0.000000000000D+00 0.000000000000D+00
